{
  "norad_id": 51758,
  "name": "STARLINK-3458",
  "history": [
    {
      "epoch": "2026-03-28T15:56:04.433280Z",
      "apogee_km": 540.5858077164221,
      "perigee_km": 538.9172130077231,
      "latitude_deg": -5.874408760874726e-06,
      "longitude_deg": 158.7945784751007,
      "height_km": 540.5983052515247,
      "semi_major_axis_km": 6917.888510362072,
      "eccentricity": 0.0001206,
      "inclination_deg": 53.2172,
      "raan_deg": 223.8942,
      "arg_perigee_deg": 86.6257,
      "mean_anomaly_deg": 273.4873,
      "mean_motion_rev_day": 15.08837343
    },
    {
      "epoch": "2026-03-29T01:28:23.289024Z",
      "apogee_km": 540.5948076728528,
      "perigee_km": 538.9026928183439,
      "latitude_deg": -7.065379422678874e-05,
      "longitude_deg": 13.539929417390523,
      "height_km": 540.582223894145,
      "semi_major_axis_km": 6917.8857502455985,
      "eccentricity": 0.0001223,
      "inclination_deg": 53.2173,
      "raan_deg": 222.1099,
      "arg_perigee_deg": 85.7686,
      "mean_anomaly_deg": 274.3445,
      "mean_motion_rev_day": 15.08838246
    },
    {
      "epoch": "2026-03-30T01:19:10.083648Z",
      "apogee_km": 540.6003366561072,
      "perigee_km": 538.8681017028248,
      "latitude_deg": 7.803306412739417e-05,
      "longitude_deg": 10.405328859928797,
      "height_km": 540.5541213259387,
      "semi_major_axis_km": 6917.871219179466,
      "eccentricity": 0.0001252,
      "inclination_deg": 53.2176,
      "raan_deg": 217.6495,
      "arg_perigee_deg": 84.9678,
      "mean_anomaly_deg": 275.1458,
      "mean_motion_rev_day": 15.08843
    },
    {
      "epoch": "2026-03-30T01:19:10.084512Z",
      "apogee_km": 540.600405834819,
      "perigee_km": 538.868032524113,
      "latitude_deg": 7.71301727596942e-05,
      "longitude_deg": 10.405324578739222,
      "height_km": 540.5541152553777,
      "semi_major_axis_km": 6917.871219179466,
      "eccentricity": 0.00012521,
      "inclination_deg": 53.2176,
      "raan_deg": 217.6495,
      "arg_perigee_deg": 84.9678,
      "mean_anomaly_deg": 275.1458,
      "mean_motion_rev_day": 15.08843
    },
    {
      "epoch": "2026-03-30T12:26:51.670176Z",
      "apogee_km": 540.5698776583304,
      "perigee_km": 538.8784606024783,
      "latitude_deg": -1.4339334127101547e-05,
      "longitude_deg": -159.0575361779581,
      "height_km": 540.4772877208823,
      "semi_major_axis_km": 6917.861169130404,
      "eccentricity": 0.00012225,
      "inclination_deg": 53.2178,
      "raan_deg": 215.567,
      "arg_perigee_deg": 80.2754,
      "mean_anomaly_deg": 279.8376,
      "mean_motion_rev_day": 15.08846288
    }
  ]
}